0 SL-3 R/B
1 13121U 82027B   22306.15971494  .00004104  00000-0  24511-3 0  9995
2 13121  81.1985  21.5643 0013794  66.7440 293.5236 15.10823748213177
0 SL-14 R/B
1 13114U 82025B   22305.81647281  .00000048  00000-0  29846-4 0  9991
2 13114  82.5386  80.2450 0015316  39.0343 125.9364 13.84696449 52158
0 METEOR 2-8
1 13113U 82025A   22306.68993081  .00000071  00000-0  49532-4 0  9998
2 13113  82.5389  72.0951 0017811   1.3574 120.6613 13.85425239 52512
0 SL-8 R/B
1 13111U 82024B   22305.70377516  .00000190  00000-0  17978-3 0  9996
2 13111  82.9212 290.0408 0040238 346.4915 186.8644 13.75938007 38253
0 COSMOS 1344
1 13110U 82024A   22305.82784799  .00000052  00000-0  39326-4 0  9992
2 13110  82.9193 320.1998 0029931  71.4170 101.1524 13.74042972 35793
0 COSMOS 1275 DEB
1 13074U 81053FA  22306.61544219  .00000605  00000-0  54538-3 0  9996
2 13074  82.9444  92.1482 0030608  28.3158  88.9168 13.82202043 73867
0 COSMOS 1275 DEB
1 13073U 81053EZ  22305.14843486  .00000150  00000-0  14508-3 0  9998
2 13073  82.9416 196.0803 0087183 179.4727 334.6149 13.71875463 64091
0 SL-3 R/B
1 13068U 82013B   22306.48077178  .00003418  00000-0  21435-3 0  9991
2 13068  81.1991 138.0120 0024994 307.4548  52.4403 15.08830632219177
0 COSMOS 1340
1 13067U 82013A   22305.70661660  .00008218  00000-0  32825-3 0  9997
2 13067  81.1865 359.4080 0003573  49.5087 310.6457 15.25005456225949
0 SL-8 R/B
1 13066U 82012B   22306.46035505  .00000073  00000-0  57728-4 0  9993
2 13066  82.8998 190.4244 0044239 139.3582  34.4620 13.77203413 45581
0 COSMOS 1339
1 13065U 82012A   22305.77056782  .00000077  00000-0  64599-4 0  9993
2 13065  82.9028 226.7813 0041935 251.8917 107.7669 13.75575790 42573
0 COSMOS 1275 DEB
1 13053U 81053EY  22305.76310113  .00001001  00000-0  11046-2 0  9999
2 13053  83.0736 293.2634 0121778 155.6917  21.1100 13.67869259 42298
0 SL-8 R/B
1 13034U 82003B   22306.46767774  .00000063  00000-0  49362-4 0  9992
2 13034  82.9412  20.0548 0033454 118.0370 253.0099 13.75325640 47170
0 COSMOS 1333
1 13033U 82003A   22306.39061597  .00000056  00000-0  44688-4 0  9991
2 13033  82.9433  62.5334 0030969 269.2326 151.5567 13.73279231 44625
0 SL-8 DEB
1 13030U 82001D   22306.42490626  .00007116  00000-0  82969-3 0  9996
2 13030  74.0224  47.5144 0013334 263.1424 215.0537 14.85325061173019
0 SL-8 DEB *
1 13029U 82001C   22306.81319638  .00002338  00000-0  46607-3 0  9990
2 13029  73.9707 137.9419 0009090 172.5845 200.4288 14.62583557101859
0 SL-8 R/B
1 13028U 82001B   22306.18546250  .00000267  00000-0  95544-4 0  9995
2 13028  74.0434  10.2435 0020544 323.7193  36.2567 14.38577525139522
0 COSMOS 1331
1 13027U 82001A   22305.59681419  .00000212  00000-0  80368-4 0  9993
2 13027  74.0484  69.0587 0024560 339.6955  20.3219 14.36807602137414
0 COSMOS 1275 DEB
1 13026U 81053EX  22306.55101162  .00008040  00000-0  26478-2 0  9994
2 13026  82.9382 225.5102 0020050  42.9053 132.6258 14.37964533102895
0 COSMOS 1275 DEB
1 13024U 81053EW  22305.19035354  .00000670  00000-0  43326-3 0  9993
2 13024  82.9306 210.3837 0048594 356.3878 155.6633 14.00959195 74535
0 COSMOS 1275 DEB
1 13022U 81053EU  22306.30870385  .00001643  00000-0  82975-3 0  9990
2 13022  82.9186 238.3021 0047756   7.5530 155.0173 14.15144835 98007
0 COSMOS 1275 DEB
1 13021U 81053ET  22305.52767660  .00001485  00000-0  99122-3 0  9999
2 13021  83.1490 207.1068 0023190 115.7850   2.7797 14.00305071 74330
0 COSMOS 1275 DEB
1 13020U 81053ES  22305.11162135  .00000544  00000-0  51020-3 0  9999
2 13020  82.6920 163.6557 0115609 252.3214 232.8768 13.77236994 48266
0 COSMOS 1275 DEB
1 13019U 81053ER  22305.48427597  .00001601  00000-0  11564-2 0  9996
2 13019  82.9454  28.6878 0080498 186.9026 184.6732 13.94547706 61675
0 COSMOS 1275 DEB
1 13018U 81053EQ  22306.11924892  .00001132  00000-0  87976-3 0  9996
2 13018  82.6752 332.6255 0055614 112.2947 304.1903 13.90944710 61384
0 COSMOS 1275 DEB
1 13017U 81053EP  22305.78477862  .00001131  00000-0  80253-3 0  9997
2 13017  82.9321 236.4163 0034874  94.9332 294.6891 13.96522594 71946
0 ATLAS CENTAUR R/B
1 13007U 81119B   22306.35423586  .00025103 -14112-5  11653-2 0  9994
2 13007  23.5234 196.1425 2935527 165.9894 204.3852  9.48112889 58024
0 SL-8 R/B
1 13003U 81120G   22305.72318925 -.00000075  00000-0 -11416-2 0  9997
2 13003  82.9486 291.7730 0081426 317.8926 216.0703 11.91500800777793
0 RADIO 6
1 13002U 81120F   22305.81299604 -.00000024  00000-0 -34540-3 0  9996
2 13002  82.9560 310.9175 0050622 290.4527 244.0232 12.13810409810902
0 RADIO 7
1 13001U 81120E   22306.48672072 -.00000083  00000-0 -10215-2 0  9990
2 13001  82.9651  27.1891 0023456 220.8292 149.7485 12.08915498803850
0 RADIO 4
1 13000U 81120D   22305.78507660 -.00000086  00000-0 -10872-2 0  9993
2 13000  82.9631  61.8950 0018104  18.9936 151.9508 12.06888844800505
0 RADIO 5
1 12999U 81120C   22305.42906149  .00000088  00000-0  90805-3 0  9990
2 12999  82.9547  85.0899 0014820 150.8097 264.2618 12.05262978798107
0 RADIO 8
1 12998U 81120B   22306.47191267 -.00000050  00000-0 -70689-3 0  9991
2 12998  82.9533 117.1216 0018651 308.3836  78.8983 12.03166794795094
0 RADIO 3
1 12997U 81120A   22306.39557840  .00000029  00000-0  19694-3 0  9997
2 12997  82.9552 278.1459 0058570 154.8384  14.3656 12.15834778813941
0 SL-14 R/B
1 12988U 81117B   22306.49070947  .00000597  00000-0  66958-4 0  9998
2 12988  82.5279  30.5129 0017609 192.2876 167.7913 14.85050892190243
0 COSMOS 1328
1 12987U 81117A   22305.06169864  .00004591  00000-0  27929-3 0  9998
2 12987  82.4961 128.2217 0021173 126.1651 234.1541 15.10018464228044
0 SL-8 R/B
1 12983U 81116J   22306.38970847  .00000019  00000-0  29995-3 0  9996
2 12983  73.9849  70.1415 0114082 141.1058 276.2316 12.24779532564474
0 COSMOS 1327
1 12982U 81116H   22305.12448219 -.00000020  00000-0 -36986-4 0  9992
2 12982  73.9822 183.8296 0077441 235.5300 199.2384 12.31621490840235
0 COSMOS 1326
1 12981U 81116G   22306.46339619 -.00000021  00000-0 -41268-4 0  9992
2 12981  73.9832 210.6707 0083067 261.3351 272.8742 12.30830463819418
0 COSMOS 1325
1 12980U 81116F   22305.81814198 -.00000013  00000-0  18090-4 0  9996
2 12980  73.9825 237.6186 0086170 293.9893  92.9174 12.30111181837823
0 COSMOS 1324
1 12979U 81116E   22305.62695179  .00000001  00000-0  14107-3 0  9999
2 12979  73.9814 251.8431 0088228 310.9503 222.5307 12.29714700837210
0 COSMOS 1323
1 12978U 81116D   22305.64313650  .00000006  00000-0  17801-3 0  9990
2 12978  73.9804 271.2264 0090470 333.5104 200.5714 12.29182859836411
0 COSMOS 1322
1 12977U 81116C   22305.43450601  .00000002  00000-0  14783-3 0  9996
2 12977  73.9796 288.3291 0093368 351.0249 123.8166 12.28704169835660
0 COSMOS 1321
1 12976U 81116B   22306.42720723  .00000008  00000-0  19901-3 0  9993
2 12976  73.9798 298.9290 0094272   5.9843 163.5368 12.28374380835312
0 COSMOS 1320
1 12975U 81116A   22306.46982737  .00000006  00000-0  17951-3 0  9992
2 12975  73.9809 311.8659 0096501  16.9873  54.6881 12.28020724834780
0 COSMOS 1275 DEB
1 12966U 81053EM  22305.49175697  .00001818  00000-0  11391-2 0  9996
2 12966  82.9482 213.7229 0027418 231.8728 305.4208 14.03907473 79206
0 COSMOS 1275 DEB
1 12964U 81053EK  22305.69570774  .00000045  00000-0  28595-4 0  9998
2 12964  82.9498  24.7805 0037461 260.1052 252.1519 13.80200216 66243
0 COSMOS 1275 DEB
1 12963U 81053EJ  22305.43363389  .00000505  00000-0  45818-3 0  9998
2 12963  82.9444  85.2677 0023800 359.7734  62.0743 13.81589959 63177
0 COSMOS 1275 DEB
1 12962U 81053EH  22306.48630967  .00001435  00000-0  10050-2 0  9994
2 12962  82.9626 311.2582 0028807  17.3336 342.8810 13.97530733 75396
0 COSMOS 1275 DEB
1 12952U 81053EG  22305.39557958  .00000983  00000-0  71076-3 0  9993
2 12952  82.9591 269.0001 0010725  32.9583  87.2972 13.95659643 77930
0 COSMOS 1275 DEB
1 12950U 81053EE  22306.51371127  .00001167  00000-0  60849-3 0  9999
2 12950  83.0153  37.1973 0053356 285.0913  87.3775 14.13062369113657
0 COSMOS 1275 DEB
1 12949U 81053ED  22306.46586499  .00000839  00000-0  62849-3 0  9998
2 12949  82.8412 116.8681 0031369 273.3969 115.3486 13.93335352 76383
0 COSMOS 1275 DEB
1 12947U 81053EB  22305.79687949  .00000672  00000-0  10175-2 0  9992
2 12947  83.0910 308.1788 0203213  88.2847  88.1284 13.43043715  3352
0 COSMOS 970 DEB
1 12942U 77121AZ  22306.40981072  .00000362  00000-0  81233-3 0  9991
2 12942  65.8314 343.7572 0097761  95.9699   7.8847 13.37016710 16735
0 SL-3 R/B
1 12904U 81103B   22305.83254708  .00003529  00000-0  23054-3 0  9994
2 12904  81.1783 190.8801 0028311  77.6755 282.7636 15.07253579788118
0 THOR DELTA 1 R/B
1 12889U 81100C   22305.21300139  .00000225  00000-0  12488-3 0  9994
2 12889  99.9178  43.7660 1315797  59.1612 337.6910 12.18306131819997
0 SL-14 R/B
1 12880U 81098B   22306.39104062  .00000027  00000-0  12007-3 0  9995
2 12880  82.5967 308.6487 0008157  58.7360  55.6820 12.42848600864092
0 COSMOS 1312
1 12879U 81098A   22306.42658255  .00000029  00000-0  14011-3 0  9994
2 12879  82.5974 317.6381 0008225 111.0985   1.9626 12.42359862405291
0 COSMOS 970 DEB
1 12870U 77121AY  22306.30567951  .00001055  00000-0  93615-3 0  9993
2 12870  65.7250 256.0827 0127189 304.8554 207.9602 13.85491776245921
0 COSMOS 970 DEB
1 12869U 77121AX  22306.50196823  .00000697  00000-0  79578-3 0  9992
2 12869  65.7913 330.6922 0097507 229.5929 205.1862 13.74341719237657
0 COSMOS 970 DEB
1 12868U 77121AW  22305.70401240  .00000784  00000-0  94719-3 0  9995
2 12868  65.7647 229.8721 0061229 351.9465  90.1276 13.71455345230262
0 COSMOS 970 DEB
1 12867U 77121AV  22306.17236293  .00000124  00000-0  37420-3 0  9994
2 12867  65.9487 193.3760 0075510 102.0252 337.8767 13.36217217144085
0 COSMOS 970 DEB
1 12866U 77121AU  22305.66665317  .00000083  00000-0  21277-3 0  9996
2 12866  65.8164 284.2294 0115694 278.5354 257.4936 13.57980280124226
0 COSMOS 970 DEB
1 12865U 77121AT  22305.17667684  .00000821  00000-0  97575-3 0  9994
2 12865  65.7724 201.5381 0074047 314.8758 200.5812 13.71827337915356
